[{"OBJECT_NAME":"STARLINK-1460","OBJECT_ID":"2020-035V","EPOCH":"2026-03-10T00:00:02.999808","MEAN_MOTION":15.29345467,"ECCENTRICITY":0.00012811,"INCLINATION":53.1565,"RA_OF_ASC_NODE":63.4675,"ARG_OF_PERICENTER":91.2928,"MEAN_ANOMALY":339.6328,"EPHEMERIS_TYPE":0,"CLASSIFICATION_TYPE":"U","NORAD_CAT_ID":45676,"ELEMENT_SET_NO":999,"REV_AT_EPOCH":559,"BSTAR":0.0010490581,"MEAN_MOTION_DOT":0.00030028,"MEAN_MOTION_DDOT":0},{"OBJECT_NAME":"CZ-6A DEB","OBJECT_ID":"2024-140RA","EPOCH":"2026-03-09T01:51:18.259488","MEAN_MOTION":15.31763252,"ECCENTRICITY":0.00411794,"INCLINATION":89.1856,"RA_OF_ASC_NODE":296.0787,"ARG_OF_PERICENTER":96.6516,"MEAN_ANOMALY":263.9425,"EPHEMERIS_TYPE":0,"CLASSIFICATION_TYPE":"U","NORAD_CAT_ID":61156,"ELEMENT_SET_NO":999,"REV_AT_EPOCH":8391,"BSTAR":0.0079173326,"MEAN_MOTION_DOT":0.00256788,"MEAN_MOTION_DDOT":0}]
